{
  "type": "FeatureCollection",
  "features": [
    {
      "type": "Feature",
      "properties": {
        "norad_id": 33986,
        "name": "COSMOS 2251 DEB",
        "group": "cosmos-2251-debris",
        "lat": -38.66504824140205,
        "lon": 134.98808797244251,
        "alt_km": 779.8148291765865,
        "timestamp": "2025-12-13T05:42:57.965399+00:00",
        "meta_object_name": "COSMOS 2251 DEB",
        "meta_object_id": "1993-036FV",
        "meta_epoch": "2025-12-11T23:00:44.932896",
        "meta_mean_motion": 14.43198553,
        "meta_eccentricity": 0.0040391,
        "meta_inclination": 74.0368,
        "meta_ra_of_asc_node": 304.1231,
        "meta_arg_of_pericenter": 16.9522,
        "meta_mean_anomaly": 39.6423,
        "meta_ephemeris_type": 0,
        "meta_classification_type": "U",
        "meta_norad_cat_id": 33986,
        "meta_element_set_no": 999,
        "meta_rev_at_epoch": 88017,
        "meta_bstar": 0.0012792,
        "meta_mean_motion_dot": 4.319e-05,
        "meta_mean_motion_ddot": 0,
        "tle_line1": "1 33986U 93036FV  25345.95885339  .00004319  00000+0  12792-2 0  9998",
        "tle_line2": "2 33986  74.0368 304.1231 0040391  16.9522  39.6423 14.43198553880179"
      },
      "geometry": {
        "type": "Point",
        "coordinates": [
          134.98808797244251,
          -38.66504824140205
        ]
      }
    },
    {
      "type": "Feature",
      "properties": {
        "norad_id": 33990,
        "name": "COSMOS 2251 DEB",
        "group": "cosmos-2251-debris",
        "lat": 67.3141513029007,
        "lon": 61.597122931275806,
        "alt_km": 1350.7024674437862,
        "timestamp": "2025-12-13T05:42:57.965410+00:00",
        "meta_object_name": "COSMOS 2251 DEB",
        "meta_object_id": "1993-036FZ",
        "meta_epoch": "2025-12-12T06:37:17.670144",
        "meta_mean_motion": 13.49990178,
        "meta_eccentricity": 0.04075297,
        "meta_inclination": 73.9288,
        "meta_ra_of_asc_node": 286.7391,
        "meta_arg_of_pericenter": 307.1331,
        "meta_mean_anomaly": 162.5842,
        "meta_ephemeris_type": 0,
        "meta_classification_type": "U",
        "meta_norad_cat_id": 33990,
        "meta_element_set_no": 999,
        "meta_rev_at_epoch": 82723,
        "meta_bstar": 0.002085937,
        "meta_mean_motion_dot": 2.199e-05,
        "meta_mean_motion_ddot": 0,
        "tle_line1": "1 33990U 93036FZ  25346.27589896  .00002199  00000+0  20859-2 0  9995",
        "tle_line2": "2 33990  73.9288 286.7391 0407529 307.1331 162.5842 13.49990178827235"
      },
      "geometry": {
        "type": "Point",
        "coordinates": [
          61.597122931275806,
          67.3141513029007
        ]
      }
    },
    {
      "type": "Feature",
      "properties": {
        "norad_id": 33992,
        "name": "COSMOS 2251 DEB",
        "group": "cosmos-2251-debris",
        "lat": 58.519236583136745,
        "lon": 128.8824483632205,
        "alt_km": 633.5861477278459,
        "timestamp": "2025-12-13T05:42:57.965421+00:00",
        "meta_object_name": "COSMOS 2251 DEB",
        "meta_object_id": "1993-036GB",
        "meta_epoch": "2025-12-12T01:37:49.786176",
        "meta_mean_motion": 14.66205168,
        "meta_eccentricity": 0.0051633,
        "meta_inclination": 74.0244,
        "meta_ra_of_asc_node": 339.0324,
        "meta_arg_of_pericenter": 97.1041,
        "meta_mean_anomaly": 325.7337,
        "meta_ephemeris_type": 0,
        "meta_classification_type": "U",
        "meta_norad_cat_id": 33992,
        "meta_element_set_no": 999,
        "meta_rev_at_epoch": 89115,
        "meta_bstar": 0.001198921,
        "meta_mean_motion_dot": 6.707e-05,
        "meta_mean_motion_ddot": 0,
        "tle_line1": "1 33992U 93036GB  25346.06793734  .00006707  00000+0  11989-2 0  9995",
        "tle_line2": "2 33992  74.0244 339.0324 0051633  97.1041 325.7337 14.66205168891156"
      },
      "geometry": {
        "type": "Point",
        "coordinates": [
          128.8824483632205,
          58.519236583136745
        ]
      }
    },
    {
      "type": "Feature",
      "properties": {
        "norad_id": 33994,
        "name": "COSMOS 2251 DEB",
        "group": "cosmos-2251-debris",
        "lat": -14.399210032651428,
        "lon": -174.72499115160528,
        "alt_km": 743.0791202949604,
        "timestamp": "2025-12-13T05:42:57.965431+00:00",
        "meta_object_name": "COSMOS 2251 DEB",
        "meta_object_id": "1993-036GD",
        "meta_epoch": "2025-12-12T00:29:46.091904",
        "meta_mean_motion": 14.41213978,
        "meta_eccentricity": 0.002364,
        "meta_inclination": 74.0417,
        "meta_ra_of_asc_node": 191.7404,
        "meta_arg_of_pericenter": 326.1705,
        "meta_mean_anomaly": 184.5728,
        "meta_ephemeris_type": 0,
        "meta_classification_type": "U",
        "meta_norad_cat_id": 33994,
        "meta_element_set_no": 999,
        "meta_rev_at_epoch": 88409,
        "meta_bstar": 0.00013177,
        "meta_mean_motion_dot": 4e-06,
        "meta_mean_motion_ddot": 0,
        "tle_line1": "1 33994U 93036GD  25346.02067236  .00000400  00000+0  13177-3 0  9990",
        "tle_line2": "2 33994  74.0417 191.7404 0023640 326.1705 184.5728 14.41213978884092"
      },
      "geometry": {
        "type": "Point",
        "coordinates": [
          -174.72499115160528,
          -14.399210032651428
        ]
      }
    },
    {
      "type": "Feature",
      "properties": {
        "norad_id": 33995,
        "name": "COSMOS 2251 DEB",
        "group": "cosmos-2251-debris",
        "lat": 46.298504374193875,
        "lon": 135.84054116528355,
        "alt_km": 766.5834045675938,
        "timestamp": "2025-12-13T05:42:57.965442+00:00",
        "meta_object_name": "COSMOS 2251 DEB",
        "meta_object_id": "1993-036GE",
        "meta_epoch": "2025-12-11T09:58:47.980704",
        "meta_mean_motion": 14.34763162,
        "meta_eccentricity": 0.00602227,
        "meta_inclination": 74.0611,
        "meta_ra_of_asc_node": 121.7736,
        "meta_arg_of_pericenter": 136.5517,
        "meta_mean_anomaly": 224.0405,
        "meta_ephemeris_type": 0,
        "meta_classification_type": "U",
        "meta_norad_cat_id": 33995,
        "meta_element_set_no": 999,
        "meta_rev_at_epoch": 87500,
        "meta_bstar": 0.0018313338,
        "meta_mean_motion_dot": 5.277e-05,
        "meta_mean_motion_ddot": 0,
        "tle_line1": "1 33995U 93036GE  25345.41583311  .00005277  00000+0  18313-2 0  9993",
        "tle_line2": "2 33995  74.0611 121.7736 0060222 136.5517 224.0405 14.34763162875001"
      },
      "geometry": {
        "type": "Point",
        "coordinates": [
          135.84054116528355,
          46.298504374193875
        ]
      }
    },
    {
      "type": "Feature",
      "properties": {
        "norad_id": 33999,
        "name": "COSMOS 2251 DEB",
        "group": "cosmos-2251-debris",
        "lat": -60.98619941013117,
        "lon": -161.55706897683763,
        "alt_km": 656.0522026226699,
        "timestamp": "2025-12-13T05:42:57.965452+00:00",
        "meta_object_name": "COSMOS 2251 DEB",
        "meta_object_id": "1993-036GJ",
        "meta_epoch": "2025-12-12T02:29:48.274944",
        "meta_mean_motion": 14.83343057,
        "meta_eccentricity": 0.00445159,
        "meta_inclination": 73.9187,
        "meta_ra_of_asc_node": 232.0448,
        "meta_arg_of_pericenter": 127.8339,
        "meta_mean_anomaly": 232.6881,
        "meta_ephemeris_type": 0,
        "meta_classification_type": "U",
        "meta_norad_cat_id": 33999,
        "meta_element_set_no": 999,
        "meta_rev_at_epoch": 89241,
        "meta_bstar": 0.0021167726,
        "meta_mean_motion_dot": 0.00017663,
        "meta_mean_motion_ddot": 0,
        "tle_line1": "1 33999U 93036GJ  25346.10403096  .00017663  00000+0  21168-2 0  9999",
        "tle_line2": "2 33999  73.9187 232.0448 0044515 127.8339 232.6881 14.83343057892417"
      },
      "geometry": {
        "type": "Point",
        "coordinates": [
          -161.55706897683763,
          -60.98619941013117
        ]
      }
    },
    {
      "type": "Feature",
      "properties": {
        "norad_id": 34001,
        "name": "COSMOS 2251 DEB",
        "group": "cosmos-2251-debris",
        "lat": -27.28988076136942,
        "lon": 109.1623902389798,
        "alt_km": 786.1882906515584,
        "timestamp": "2025-12-13T05:42:57.965463+00:00",
        "meta_object_name": "COSMOS 2251 DEB",
        "meta_object_id": "1993-036GL",
        "meta_epoch": "2025-12-12T06:03:30.898944",
        "meta_mean_motion": 14.37097701,
        "meta_eccentricity": 0.00199285,
        "meta_inclination": 74.0388,
        "meta_ra_of_asc_node": 282.4832,
        "meta_arg_of_pericenter": 3.5131,
        "meta_mean_anomaly": 147.2925,
        "meta_ephemeris_type": 0,
        "meta_classification_type": "U",
        "meta_norad_cat_id": 34001,
        "meta_element_set_no": 999,
        "meta_rev_at_epoch": 88139,
        "meta_bstar": 0.00033860249,
        "meta_mean_motion_dot": 9.82e-06,
        "meta_mean_motion_ddot": 0,
        "tle_line1": "1 34001U 93036GL  25346.25244096  .00000982  00000+0  33860-3 0  9992",
        "tle_line2": "2 34001  74.0388 282.4832 0019928   3.5131 147.2925 14.37097701881399"
      },
      "geometry": {
        "type": "Point",
        "coordinates": [
          109.1623902389798,
          -27.28988076136942
        ]
      }
    }
  ]
}